{"type": "FeatureCollection", "features": [ {"type": "Feature", "properties": {"norad_id": 30629, "name": "FENGYUN 1C DEB", "group": "fengyun-1c-debris", "lat": 42.18862809095097, "lon": -94.44783988773767, "alt_km": 690.0752762326474, "timestamp": "2025-12-07T16:44:04.188939+00:00", "meta": {"OBJECT_NAME": "FENGYUN 1C DEB", "OBJECT_ID": "1999-025ANL", "EPOCH": "2025-12-06T12:43:28.699392", "MEAN_MOTION": 14.59306421, "ECCENTRICITY": 0.00077316, "INCLINATION": 99.2519, "RA_OF_ASC_NODE": 75.7565, "ARG_OF_PERICENTER": 212.7151, "MEAN_ANOMALY": 276.5679, "EPHEMERIS_TYPE": 0, "CLASSIFICATION_TYPE": "U", "NORAD_CAT_ID": 30629, "ELEMENT_SET_NO": 999, "REV_AT_EPOCH": 97799, "BSTAR": 0.0052253957, "MEAN_MOTION_DOT": 0.00024742, "MEAN_MOTION_DDOT": 0}, "tle": {"line1": "1 30629U 99025ANL 25340.53019328  .00024742  00000+0  52254-2 0  9998", "line2": "2 30629  99.2519  75.7565 0007731 212.7151 276.5679 14.59306421977997"}}, "geometry": {"type": "Point", "coordinates": [-94.44783988773767, 42.18862809095097]}}, {"type": "Feature", "properties": {"norad_id": 30630, "name": "FENGYUN 1C DEB", "group": "fengyun-1c-debris", "lat": 47.304883259151765, "lon": 144.44402934665735, "alt_km": 798.938516661744, "timestamp": "2025-12-07T16:44:04.188949+00:00", "meta": {"OBJECT_NAME": "FENGYUN 1C DEB", "OBJECT_ID": "1999-025ANM", "EPOCH": "2025-12-06T10:15:39.659040", "MEAN_MOTION": 14.22340888, "ECCENTRICITY": 0.00259805, "INCLINATION": 99.1726, "RA_OF_ASC_NODE": 153.2098, "ARG_OF_PERICENTER": 92.34, "MEAN_ANOMALY": 298.0896, "EPHEMERIS_TYPE": 0, "CLASSIFICATION_TYPE": "U", "NORAD_CAT_ID": 30630, "ELEMENT_SET_NO": 999, "REV_AT_EPOCH": 97123, "BSTAR": 0.001655757, "MEAN_MOTION_DOT": 3.649e-05, "MEAN_MOTION_DDOT": 0}, "tle": {"line1": "1 30630U 99025ANM 25340.42754235  .00003649  00000+0  16558-2 0  9991", "line2": "2 30630  99.1726 153.2098 0025980  92.3400 298.0896 14.22340888971232"}}, "geometry": {"type": "Point", "coordinates": [144.44402934665735, 47.304883259151765]}}, {"type": "Feature", "properties": {"norad_id": 30632, "name": "FENGYUN 1C DEB", "group": "fengyun-1c-debris", "lat": -49.24468153288644, "lon": -77.68150043789691, "alt_km": 684.4186745281613, "timestamp": "2025-12-07T16:44:04.188959+00:00", "meta": {"OBJECT_NAME": "FENGYUN 1C DEB", "OBJECT_ID": "1999-025ANP", "EPOCH": "2025-12-06T20:40:17.871744", "MEAN_MOTION": 14.6241906, "ECCENTRICITY": 0.00155192, "INCLINATION": 98.824, "RA_OF_ASC_NODE": 111.8101, "ARG_OF_PERICENTER": 186.6189, "MEAN_ANOMALY": 324.6617, "EPHEMERIS_TYPE": 0, "CLASSIFICATION_TYPE": "U", "NORAD_CAT_ID": 30632, "ELEMENT_SET_NO": 999, "REV_AT_EPOCH": 97605, "BSTAR": 0.0062741163, "MEAN_MOTION_DOT": 0.00031896, "MEAN_MOTION_DDOT": 0}, "tle": {"line1": "1 30632U 99025ANP 25340.86131796  .00031896  00000+0  62741-2 0  9992", "line2": "2 30632  98.8240 111.8101 0015519 186.6189 324.6617 14.62419060976059"}}, "geometry": {"type": "Point", "coordinates": [-77.68150043789691, -49.24468153288644]}}, {"type": "Feature", "properties": {"norad_id": 30633, "name": "FENGYUN 1C DEB", "group": "fengyun-1c-debris", "lat": 80.63525660293577, "lon": 90.98437584893915, "alt_km": 966.1764263285886, "timestamp": "2025-12-07T16:44:04.188970+00:00", "meta": {"OBJECT_NAME": "FENGYUN 1C DEB", "OBJECT_ID": "1999-025ANQ", "EPOCH": "2025-12-06T14:55:40.158048", "MEAN_MOTION": 14.04362284, "ECCENTRICITY": 0.0130757, "INCLINATION": 98.4206, "RA_OF_ASC_NODE": 206.065, "ARG_OF_PERICENTER": 277.6189, "MEAN_ANOMALY": 143.2076, "EPHEMERIS_TYPE": 0, "CLASSIFICATION_TYPE": "U", "NORAD_CAT_ID": 30633, "ELEMENT_SET_NO": 999, "REV_AT_EPOCH": 95806, "BSTAR": 0.0016244115, "MEAN_MOTION_DOT": 2.749e-05, "MEAN_MOTION_DDOT": 0}, "tle": {"line1": "1 30633U 99025ANQ 25340.62199257  .00002749  00000+0  16244-2 0  9995", "line2": "2 30633  98.4206 206.0650 0130757 277.6189 143.2076 14.04362284958063"}}, "geometry": {"type": "Point", "coordinates": [90.98437584893915, 80.63525660293577]}}, {"type": "Feature", "properties": {"norad_id": 30634, "name": "FENGYUN 1C DEB", "group": "fengyun-1c-debris", "lat": 1.720974855843246, "lon": -35.92781212816595, "alt_km": 890.2835927853403, "timestamp": "2025-12-07T16:44:04.188980+00:00", "meta": {"OBJECT_NAME": "FENGYUN 1C DEB", "OBJECT_ID": "1999-025ANR", "EPOCH": "2025-12-06T22:14:39.839136", "MEAN_MOTION": 14.09646142, "ECCENTRICITY": 0.0120549, "INCLINATION": 99.2916, "RA_OF_ASC_NODE": 323.5591, "ARG_OF_PERICENTER": 112.7302, "MEAN_ANOMALY": 302.9003, "EPHEMERIS_TYPE": 0, "CLASSIFICATION_TYPE": "U", "NORAD_CAT_ID": 30634, "ELEMENT_SET_NO": 999, "REV_AT_EPOCH": 95535, "BSTAR": 0.0027719644, "MEAN_MOTION_DOT": 5.154e-05, "MEAN_MOTION_DDOT": 0}, "tle": {"line1": "1 30634U 99025ANR 25340.92684999  .00005154  00000+0  27720-2 0  9995", "line2": "2 30634  99.2916 323.5591 0120549 112.7302 302.9003 14.09646142955350"}}, "geometry": {"type": "Point", "coordinates": [-35.92781212816595, 1.720974855843246]}}, {"type": "Feature", "properties": {"norad_id": 30639, "name": "FENGYUN 1C DEB", "group": "fengyun-1c-debris", "lat": -18.783329733124496, "lon": 96.57949104796249, "alt_km": 755.3839275406481, "timestamp": "2025-12-07T16:44:04.188991+00:00", "meta": {"OBJECT_NAME": "FENGYUN 1C DEB", "OBJECT_ID": "1999-025ANW", "EPOCH": "2025-12-05T12:50:41.481312", "MEAN_MOTION": 14.32158076, "ECCENTRICITY": 0.00668358, "INCLINATION": 99.0193, "RA_OF_ASC_NODE": 91.2358, "ARG_OF_PERICENTER": 302.2906, "MEAN_ANOMALY": 57.1813, "EPHEMERIS_TYPE": 0, "CLASSIFICATION_TYPE": "U", "NORAD_CAT_ID": 30639, "ELEMENT_SET_NO": 999, "REV_AT_EPOCH": 96616, "BSTAR": 0.0052811575, "MEAN_MOTION_DOT": 0.00014553, "MEAN_MOTION_DDOT": 0}, "tle": {"line1": "1 30639U 99025ANW 25339.53520233  .00014553  00000+0  52812-2 0  9998", "line2": "2 30639  99.0193  91.2358 0066835 302.2906  57.1813 14.32158076966162"}}, "geometry": {"type": "Point", "coordinates": [96.57949104796249, -18.783329733124496]}}, {"type": "Feature", "properties": {"norad_id": 30640, "name": "FENGYUN 1C DEB", "group": "fengyun-1c-debris", "lat": 73.15205386519013, "lon": 21.044857700351017, "alt_km": 790.7465777880288, "timestamp": "2025-12-07T16:44:04.189001+00:00", "meta": {"OBJECT_NAME": "FENGYUN 1C DEB", "OBJECT_ID": "1999-025ANX", "EPOCH": "2025-12-05T22:12:22.076928", "MEAN_MOTION": 14.145743, "ECCENTRICITY": 0.00813405, "INCLINATION": 99.058, "RA_OF_ASC_NODE": 51.0355, "ARG_OF_PERICENTER": 119.6801, "MEAN_ANOMALY": 297.6834, "EPHEMERIS_TYPE": 0, "CLASSIFICATION_TYPE": "U", "NORAD_CAT_ID": 30640, "ELEMENT_SET_NO": 999, "REV_AT_EPOCH": 96349, "BSTAR": 0.0026768953, "MEAN_MOTION_DOT": 5.265e-05, "MEAN_MOTION_DDOT": 0}, "tle": {"line1": "1 30640U 99025ANX 25339.92525552  .00005265  00000+0  26769-2 0  9994", "line2": "2 30640  99.0580  51.0355 0081340 119.6801 297.6834 14.14574300963496"}}, "geometry": {"type": "Point", "coordinates": [21.044857700351017, 73.15205386519013]}}, {"type": "Feature", "properties": {"norad_id": 30641, "name": "FENGYUN 1C DEB", "group": "fengyun-1c-debris", "lat": -59.66313458294261, "lon": -68.87988366543733, "alt_km": 727.3049311884188, "timestamp": "2025-12-07T16:44:04.189011+00:00", "meta": {"OBJECT_NAME": "FENGYUN 1C DEB", "OBJECT_ID": "1999-025ANY", "EPOCH": "2025-12-06T18:25:21.150624", "MEAN_MOTION": 14.78892365, "ECCENTRICITY": 0.01359871, "INCLINATION": 98.9419, "RA_OF_ASC_NODE": 274.4798, "ARG_OF_PERICENTER": 145.3226, "MEAN_ANOMALY": 246.5844, "EPHEMERIS_TYPE": 0, "CLASSIFICATION_TYPE": "U", "NORAD_CAT_ID": 30641, "ELEMENT_SET_NO": 999, "REV_AT_EPOCH": 444, "BSTAR": 0.00083370735, "MEAN_MOTION_DOT": 7.115e-05, "MEAN_MOTION_DDOT": 0}, "tle": {"line1": "1 30641U 99025ANY 25340.76760591  .00007115  00000+0  83371-3 0  9992", "line2": "2 30641  98.9419 274.4798 0135987 145.3226 246.5844 14.78892365  4441"}}, "geometry": {"type": "Point", "coordinates": [-68.87988366543733, -59.66313458294261]}}, {"type": "Feature", "properties": {"norad_id": 30646, "name": "FENGYUN 1C DEB", "group": "fengyun-1c-debris", "lat": -32.770825096777, "lon": 176.80784172529792, "alt_km": 900.8733323162414, "timestamp": "2025-12-07T16:44:04.189021+00:00", "meta": {"OBJECT_NAME": "FENGYUN 1C DEB", "OBJECT_ID": "1999-025APD", "EPOCH": "2025-12-06T07:21:44.445024", "MEAN_MOTION": 14.09629423, "ECCENTRICITY": 0.0048506, "INCLINATION": 98.6528, "RA_OF_ASC_NODE": 1.0968, "ARG_OF_PERICENTER": 50.1797, "MEAN_ANOMALY": 310.3628, "EPHEMERIS_TYPE": 0, "CLASSIFICATION_TYPE": "U", "NORAD_CAT_ID": 30646, "ELEMENT_SET_NO": 999, "REV_AT_EPOCH": 96514, "BSTAR": 0.0011140467, "MEAN_MOTION_DOT": 1.932e-05, "MEAN_MOTION_DDOT": 0}, "tle": {"line1": "1 30646U 99025APD 25340.30676441  .00001932  00000+0  11140-2 0  9992", "line2": "2 30646  98.6528   1.0968 0048506  50.1797 310.3628 14.09629423965143"}}, "geometry": {"type": "Point", "coordinates": [176.80784172529792, -32.770825096777]}}, {"type": "Feature", "properties": {"norad_id": 30647, "name": "FENGYUN 1C DEB", "group": "fengyun-1c-debris", "lat": -4.756924670902847, "lon": 92.59521224808026, "alt_km": 688.1802219798255, "timestamp": "2025-12-07T16:44:04.189032+00:00", "meta": {"OBJECT_NAME": "FENGYUN 1C DEB", "OBJECT_ID": "1999-025APE", "EPOCH": "2025-12-04T18:52:56.020800", "MEAN_MOTION": 14.56227165, "ECCENTRICITY": 0.00288037, "INCLINATION": 98.989, "RA_OF_ASC_NODE": 270.2156, "ARG_OF_PERICENTER": 199.8234, "MEAN_ANOMALY": 214.8083, "EPHEMERIS_TYPE": 0, "CLASSIFICATION_TYPE": "U", "NORAD_CAT_ID": 30647, "ELEMENT_SET_NO": 999, "REV_AT_EPOCH": 97873, "BSTAR": 0.0059112224, "MEAN_MOTION_DOT": 0.0002633, "MEAN_MOTION_DDOT": 0}, "tle": {"line1": "1 30647U 99025APE 25338.78675950  .00026330  00000+0  59112-2 0  9996", "line2": "2 30647  98.9890 270.2156 0028803 199.8234 214.8083 14.56227165978734"}}, "geometry": {"type": "Point", "coordinates": [92.59521224808026, -4.756924670902847]}}]}